[{"OBJECT_NAME":"STARLINK-4191","OBJECT_ID":"2022-062AG","EPOCH":"2026-03-09T06:53:46.614048","MEAN_MOTION":15.08839224,"ECCENTRICITY":0.0001505,"INCLINATION":53.2185,"RA_OF_ASC_NODE":25.9245,"ARG_OF_PERICENTER":107.4348,"MEAN_ANOMALY":252.6809,"EPHEMERIS_TYPE":0,"CLASSIFICATION_TYPE":"U","NORAD_CAT_ID":52860,"ELEMENT_SET_NO":999,"REV_AT_EPOCH":20586,"BSTAR":-4.2247414e-5,"MEAN_MOTION_DOT":-9.6e-6,"MEAN_MOTION_DDOT":0},{"OBJECT_NAME":"CZ-4C DEB","OBJECT_ID":"2010-038E","EPOCH":"2026-03-08T13:52:01.201152","MEAN_MOTION":14.99820212,"ECCENTRICITY":0.00772359,"INCLINATION":97.9453,"RA_OF_ASC_NODE":199.3713,"ARG_OF_PERICENTER":309.8702,"MEAN_ANOMALY":49.5744,"EPHEMERIS_TYPE":0,"CLASSIFICATION_TYPE":"U","NORAD_CAT_ID":37569,"ELEMENT_SET_NO":999,"REV_AT_EPOCH":82446,"BSTAR":0.0019249603,"MEAN_MOTION_DOT":0.00025376,"MEAN_MOTION_DDOT":0}]
